GLOBALSTAR M001         
1 25162U 98008A   24351.74858229 -.00000076  00000+0  15750-3 0  9995
2 25162  52.0008 144.2229 0001331 175.9542 196.7424 12.38204351221229
GLOBALSTAR M004         
1 25163U 98008B   24351.79197356 -.00000042  00000+0  34384-3 0  9995
2 25163  51.9995 250.5916 0002119 246.5065 154.0004 12.63382018238737
GLOBALSTAR M002         
1 25164U 98008C   24351.29313543 -.00000053  00000+0  45516-3 0  9990
2 25164  52.0035 338.7796 0001194 166.3764 193.7088 11.61506970162883
GLOBALSTAR M003         
1 25165U 98008D   24351.20041834  .00000016  00000+0  11268-2 0  9997
2 25165  51.9993 315.3089 0007838 286.4267  86.8156 12.12060122211125
GLOBALSTAR M014         
1 25306U 98023A   24351.78272682 -.00000027  00000+0  94951-3 0  9995
2 25306  51.9839 264.6135 0001763  36.8569 356.8649 11.65476539169895
GLOBALSTAR M006         
1 25307U 98023B   24351.14994514 -.00000062  00000+0  27936-3 0  9999
2 25307  51.9958 311.8445 0003494 127.5194 245.2325 11.58170217195732
GLOBALSTAR M015         
1 25308U 98023C   24350.92953802 -.00000112  00000+0 -88743-3 0  9990
2 25308  51.9845  42.4647 0012999 111.2260  59.8874 11.48855276173012
GLOBALSTAR M008         
1 25309U 98023D   24351.83031355 -.00000036  00000+0  47272-3 0  9998
2 25309  51.9992   6.7501 0002726 149.0637  22.6871 12.36058223215604
